[{"OBJECT_NAME":"ONEWEB-0282","OBJECT_ID":"2021-060AK","EPOCH":"2025-09-01T03:44:37.839264","MEAN_MOTION":13.16594267,"ECCENTRICITY":0.00017211,"INCLINATION":87.9001,"RA_OF_ASC_NODE":286.3923,"ARG_OF_PERICENTER":92.6692,"MEAN_ANOMALY":267.4636,"EPHEMERIS_TYPE":0,"CLASSIFICATION_TYPE":"U","NORAD_CAT_ID":49000,"ELEMENT_SET_NO":999,"REV_AT_EPOCH":20157,"BSTAR":-0.00014229073,"MEAN_MOTION_DOT":-4.2e-7,"MEAN_MOTION_DDOT":0},{"OBJECT_NAME":"ONEWEB-0283","OBJECT_ID":"2021-060AL","EPOCH":"2025-09-01T03:28:40.410624","MEAN_MOTION":13.16594994,"ECCENTRICITY":0.00017975,"INCLINATION":87.8996,"RA_OF_ASC_NODE":286.3977,"ARG_OF_PERICENTER":88.483,"MEAN_ANOMALY":271.6507,"EPHEMERIS_TYPE":0,"CLASSIFICATION_TYPE":"U","NORAD_CAT_ID":49001,"ELEMENT_SET_NO":999,"REV_AT_EPOCH":20158,"BSTAR":-8.6033262e-5,"MEAN_MOTION_DOT":-2.0e-7,"MEAN_MOTION_DDOT":0},{"OBJECT_NAME":"ONEWEB-0284","OBJECT_ID":"2021-060AM","EPOCH":"2025-09-01T03:19:33.598848","MEAN_MOTION":13.16594414,"ECCENTRICITY":0.00017816,"INCLINATION":87.9012,"RA_OF_ASC_NODE":286.3777,"ARG_OF_PERICENTER":102.5278,"MEAN_ANOMALY":257.6052,"EPHEMERIS_TYPE":0,"CLASSIFICATION_TYPE":"U","NORAD_CAT_ID":49002,"ELEMENT_SET_NO":999,"REV_AT_EPOCH":20156,"BSTAR":-1.5796087e-5,"MEAN_MOTION_DOT":7.0e-8,"MEAN_MOTION_DDOT":0},{"OBJECT_NAME":"ONEWEB-0285","OBJECT_ID":"2021-075A","EPOCH":"2025-09-01T04:44:40.851456","MEAN_MOTION":13.12443008,"ECCENTRICITY":0.00016553,"INCLINATION":87.8879,"RA_OF_ASC_NODE":48.0831,"ARG_OF_PERICENTER":93.3015,"MEAN_ANOMALY":266.8303,"EPHEMERIS_TYPE":0,"CLASSIFICATION_TYPE":"U","NORAD_CAT_ID":49075,"ELEMENT_SET_NO":999,"REV_AT_EPOCH":19730,"BSTAR":0.00020096379,"MEAN_MOTION_DOT":8.5e-7,"MEAN_MOTION_DDOT":0},{"OBJECT_NAME":"ONEWEB-0286","OBJECT_ID":"2021-075B","EPOCH":"2025-09-01T04:18:32.624064","MEAN_MOTION":13.12441252,"ECCENTRICITY":0.00018897,"INCLINATION":87.889,"RA_OF_ASC_NODE":48.1204,"ARG_OF_PERICENTER":94.8596,"MEAN_ANOMALY":265.2748,"EPHEMERIS_TYPE":0,"CLASSIFICATION_TYPE":"U","NORAD_CAT_ID":49076,"ELEMENT_SET_NO":999,"REV_AT_EPOCH":19665,"BSTAR":-0.00099851985,"MEAN_MOTION_DOT":-3.46e-6,"MEAN_MOTION_DDOT":0},{"OBJECT_NAME":"ONEWEB-0287","OBJECT_ID":"2021-075C","EPOCH":"2025-09-01T05:30:31.495680","MEAN_MOTION":13.17647382,"ECCENTRICITY":0.00020642,"INCLINATION":87.9038,"RA_OF_ASC_NODE":63.3498,"ARG_OF_PERICENTER":99.9384,"MEAN_ANOMALY":260.1981,"EPHEMERIS_TYPE":0,"CLASSIFICATION_TYPE":"U","NORAD_CAT_ID":49077,"ELEMENT_SET_NO":999,"REV_AT_EPOCH":19557,"BSTAR":0.00011723717,"MEAN_MOTION_DOT":5.8e-7,"MEAN_MOTION_DDOT":0},{"OBJECT_NAME":"ONEWEB-0288","OBJECT_ID":"2021-075D","EPOCH":"2025-09-01T03:43:44.686848","MEAN_MOTION":13.1244215,"ECCENTRICITY":0.00016657,"INCLINATION":87.8877,"RA_OF_ASC_NODE":48.0859,"ARG_OF_PERICENTER":96.428,"MEAN_ANOMALY":263.7038,"EPHEMERIS_TYPE":0,"CLASSIFICATION_TYPE":"U","NORAD_CAT_ID":49078,"ELEMENT_SET_NO":999,"REV_AT_EPOCH":19727,"BSTAR":0.00048550053,"MEAN_MOTION_DOT":1.87e-6,"MEAN_MOTION_DDOT":0},{"OBJECT_NAME":"ONEWEB-0289","OBJECT_ID":"2021-075E","EPOCH":"2025-09-01T04:36:50.555520","MEAN_MOTION":13.17648244,"ECCENTRICITY":0.00013676,"INCLINATION":87.9022,"RA_OF_ASC_NODE":63.3843,"ARG_OF_PERICENTER":99.546,"MEAN_ANOMALY":260.5826,"EPHEMERIS_TYPE":0,"CLASSIFICATION_TYPE":"U","NORAD_CAT_ID":49079,"ELEMENT_SET_NO":999,"REV_AT_EPOCH":19614,"BSTAR":0.00036120918,"MEAN_MOTION_DOT":1.53e-6,"MEAN_MOTION_DDOT":0},{"OBJECT_NAME":"ONEWEB-0290","OBJECT_ID":"2021-075F","EPOCH":"2025-09-01T05:47:30.976800","MEAN_MOTION":13.17647846,"ECCENTRICITY":0.0001108,"INCLINATION":87.903,"RA_OF_ASC_NODE":63.3279,"ARG_OF_PERICENTER":94.4342,"MEAN_ANOMALY":265.6916,"EPHEMERIS_TYPE":0,"CLASSIFICATION_TYPE":"U","NORAD_CAT_ID":49080,"ELEMENT_SET_NO":999,"REV_AT_EPOCH":19556,"BSTAR":0.0001508131,"MEAN_MOTION_DOT":7.1e-7,"MEAN_MOTION_DDOT":0},{"OBJECT_NAME":"ONEWEB-0291","OBJECT_ID":"2021-075G","EPOCH":"2025-09-01T05:25:41.204640","MEAN_MOTION":13.17646701,"ECCENTRICITY":0.00017921,"INCLINATION":87.9037,"RA_OF_ASC_NODE":63.3352,"ARG_OF_PERICENTER":103.7782,"MEAN_ANOMALY":256.355,"EPHEMERIS_TYPE":0,"CLASSIFICATION_TYPE":"U","NORAD_CAT_ID":49081,"ELEMENT_SET_NO":999,"REV_AT_EPOCH":19555,"BSTAR":9.3408495e-5,"MEAN_MOTION_DOT":4.9e-7,"MEAN_MOTION_DDOT":0},{"OBJECT_NAME":"ONEWEB-0293","OBJECT_ID":"2021-075H","EPOCH":"2025-09-01T06:02:07.241280","MEAN_MOTION":13.17649813,"ECCENTRICITY":0.00015905,"INCLINATION":87.9025,"RA_OF_ASC_NODE":63.3606,"ARG_OF_PERICENTER":92.6871,"MEAN_ANOMALY":267.4442,"EPHEMERIS_TYPE":0,"CLASSIFICATION_TYPE":"U","NORAD_CAT_ID":49082,"ELEMENT_SET_NO":999,"REV_AT_EPOCH":19558,"BSTAR":7.8723315e-5,"MEAN_MOTION_DOT":4.3e-7,"MEAN_MOTION_DDOT":0},{"OBJECT_NAME":"ONEWEB-0294","OBJECT_ID":"2021-075J","EPOCH":"2025-09-01T03:53:05.217216","MEAN_MOTION":13.12441633,"ECCENTRICITY":0.00013515,"INCLINATION":87.8878,"RA_OF_ASC_NODE":48.0852,"ARG_OF_PERICENTER":106.681,"MEAN_ANOMALY":253.4467,"EPHEMERIS_TYPE":0,"CLASSIFICATION_TYPE":"U","NORAD_CAT_ID":49083,"ELEMENT_SET_NO":999,"REV_AT_EPOCH":19666,"BSTAR":-0.00023582466,"MEAN_MOTION_DOT":-7.2e-7,"MEAN_MOTION_DDOT":0},{"OBJECT_NAME":"ONEWEB-0295","OBJECT_ID":"2021-075K","EPOCH":"2025-09-01T06:00:52.430112","MEAN_MOTION":13.17649086,"ECCENTRICITY":0.00018494,"INCLINATION":87.9034,"RA_OF_ASC_NODE":63.3631,"ARG_OF_PERICENTER":101.2496,"MEAN_ANOMALY":258.8843,"EPHEMERIS_TYPE":0,"CLASSIFICATION_TYPE":"U","NORAD_CAT_ID":49084,"ELEMENT_SET_NO":999,"REV_AT_EPOCH":19554,"BSTAR":-0.00043537631,"MEAN_MOTION_DOT":-1.56e-6,"MEAN_MOTION_DDOT":0},{"OBJECT_NAME":"ONEWEB-0296","OBJECT_ID":"2021-075L","EPOCH":"2025-09-01T05:14:50.698176","MEAN_MOTION":13.12441917,"ECCENTRICITY":0.00017414,"INCLINATION":87.8874,"RA_OF_ASC_NODE":48.0798,"ARG_OF_PERICENTER":111.3521,"MEAN_ANOMALY":248.7794,"EPHEMERIS_TYPE":0,"CLASSIFICATION_TYPE":"U","NORAD_CAT_ID":49085,"ELEMENT_SET_NO":999,"REV_AT_EPOCH":19667,"BSTAR":0.0010039936,"MEAN_MOTION_DOT":3.74e-6,"MEAN_MOTION_DDOT":0},{"OBJECT_NAME":"ONEWEB-0297","OBJECT_ID":"2021-075M","EPOCH":"2025-09-01T04:09:25.823520","MEAN_MOTION":13.12443069,"ECCENTRICITY":0.00017729,"INCLINATION":87.8872,"RA_OF_ASC_NODE":48.1269,"ARG_OF_PERICENTER":93.879,"MEAN_ANOMALY":266.2541,"EPHEMERIS_TYPE":0,"CLASSIFICATION_TYPE":"U","NORAD_CAT_ID":49086,"ELEMENT_SET_NO":999,"REV_AT_EPOCH":19727,"BSTAR":-0.00098082342,"MEAN_MOTION_DOT":-3.4e-6,"MEAN_MOTION_DDOT":0},{"OBJECT_NAME":"ONEWEB-0298","OBJECT_ID":"2021-075N","EPOCH":"2025-09-01T06:07:10.001568","MEAN_MOTION":13.17637327,"ECCENTRICITY":0.00017903,"INCLINATION":87.9025,"RA_OF_ASC_NODE":63.3578,"ARG_OF_PERICENTER":89.6244,"MEAN_ANOMALY":270.5093,"EPHEMERIS_TYPE":0,"CLASSIFICATION_TYPE":"U","NORAD_CAT_ID":49087,"ELEMENT_SET_NO":999,"REV_AT_EPOCH":19557,"BSTAR":-0.0018228743,"MEAN_MOTION_DOT":-6.95e-6,"MEAN_MOTION_DDOT":0},{"OBJECT_NAME":"ONEWEB-0299","OBJECT_ID":"2021-075P","EPOCH":"2025-09-01T06:09:23.835168","MEAN_MOTION":13.17649246,"ECCENTRICITY":0.00019417,"INCLINATION":87.9035,"RA_OF_ASC_NODE":63.3127,"ARG_OF_PERICENTER":92.3372,"MEAN_ANOMALY":267.7981,"EPHEMERIS_TYPE":0,"CLASSIFICATION_TYPE":"U","NORAD_CAT_ID":49088,"ELEMENT_SET_NO":999,"REV_AT_EPOCH":19555,"BSTAR":4.5929996e-5,"MEAN_MOTION_DOT":3.1e-7,"MEAN_MOTION_DDOT":0}]
