ONEWEB-0282             
1 49000U 21060AK  25244.15599351 -.00000042  00000+0 -14229-3 0  9995
2 49000  87.9001 286.3923 0001721  92.6692 267.4636 13.16594267201571
ONEWEB-0283             
1 49001U 21060AL  25244.14491216 -.00000020  00000+0 -86033-4 0  9995
2 49001  87.8996 286.3977 0001797  88.4830 271.6507 13.16594994201585
ONEWEB-0284             
1 49002U 21060AM  25244.13858332  .00000007  00000+0 -15796-4 0  9993
2 49002  87.9012 286.3777 0001781 102.5278 257.6052 13.16594414201565
ONEWEB-0285             
1 49075U 21075A   25244.19769504  .00000085  00000+0  20096-3 0  9990
2 49075  87.8879  48.0831 0001655  93.3015 266.8303 13.12443008197300
ONEWEB-0286             
1 49076U 21075B   25244.17954426 -.00000346  00000+0 -99852-3 0  9996
2 49076  87.8890  48.1204 0001889  94.8596 265.2748 13.12441252196650
ONEWEB-0287             
1 49077U 21075C   25244.22953120  .00000058  00000+0  11724-3 0  9993
2 49077  87.9038  63.3498 0002064  99.9384 260.1981 13.17647382195577
ONEWEB-0288             
1 49078U 21075D   25244.15537832  .00000187  00000+0  48550-3 0  9994
2 49078  87.8877  48.0859 0001665  96.4280 263.7038 13.12442150197274
ONEWEB-0289             
1 49079U 21075E   25244.19225180  .00000153  00000+0  36121-3 0  9993
2 49079  87.9022  63.3843 0001367  99.5460 260.5826 13.17648244196146
ONEWEB-0290             
1 49080U 21075F   25244.24133075  .00000071  00000+0  15081-3 0  9993
2 49080  87.9030  63.3279 0001108  94.4342 265.6916 13.17647846195564
ONEWEB-0291             
1 49081U 21075G   25244.22617135  .00000049  00000+0  93408-4 0  9991
2 49081  87.9037  63.3352 0001792 103.7782 256.3550 13.17646701195554
ONEWEB-0293             
1 49082U 21075H   25244.25147270  .00000043  00000+0  78723-4 0  9990
2 49082  87.9025  63.3606 0001590  92.6871 267.4442 13.17649813195588
ONEWEB-0294             
1 49083U 21075J   25244.16186594 -.00000072  00000+0 -23582-3 0  9999
2 49083  87.8878  48.0852 0001351 106.6810 253.4467 13.12441633196668
ONEWEB-0295             
1 49084U 21075K   25244.25060683 -.00000156  00000+0 -43538-3 0  9996
2 49084  87.9034  63.3631 0001849 101.2496 258.8843 13.17649086195542
ONEWEB-0296             
1 49085U 21075L   25244.21864234  .00000374  00000+0  10040-2 0  9998
2 49085  87.8874  48.0798 0001741 111.3521 248.7794 13.12441917196676
ONEWEB-0297             
1 49086U 21075M   25244.17321555 -.00000340  00000+0 -98082-3 0  9996
2 49086  87.8872  48.1269 0001772  93.8790 266.2541 13.12443069197277
ONEWEB-0298             
1 49087U 21075N   25244.25497687 -.00000695  00000+0 -18229-2 0  9993
2 49087  87.9025  63.3578 0001790  89.6244 270.5093 13.17637327195576
ONEWEB-0299             
1 49088U 21075P   25244.25652587  .00000031  00000+0  45930-4 0  9999
2 49088  87.9035  63.3127 0001941  92.3372 267.7981 13.17649246195554
